{
  "norad_id": 49771,
  "name": "STARLINK-3201",
  "history": [
    {
      "epoch": "2026-03-28T14:43:13.622304",
      "apogee_km": 540.8018413732007,
      "perigee_km": 538.7112539430982,
      "latitude_deg": -50.95561824101444,
      "longitude_deg": -64.01819743984379,
      "semi_major_axis_km": 6917.893547658149,
      "eccentricity": 0.0001511,
      "inclination_deg": 53.2178,
      "raan_deg": 54.1701,
      "arg_perigee_deg": 89.3324,
      "mean_anomaly_deg": 270.7841,
      "mean_motion_rev_day": 15.08835695
    },
    {
      "epoch": "2026-03-29T05:01:41.435040",
      "apogee_km": 540.7575832686798,
      "perigee_km": 538.7112768996612,
      "latitude_deg": 52.36823361760908,
      "longitude_deg": -6.787294399924576,
      "semi_major_axis_km": 6917.87143008417,
      "eccentricity": 0.0001479,
      "inclination_deg": 53.2177,
      "raan_deg": 51.4935,
      "arg_perigee_deg": 88.5636,
      "mean_anomaly_deg": 271.5525,
      "mean_motion_rev_day": 15.08842931
    }
  ]
}